{
"type": "FeatureCollection",
"name": "克什米尔地区",
"crs": { "type": "name", "properties": { "name": "urn:ogc:def:crs:OGC:1.3:CRS84" } },
"features": [
{ "type": "Feature", "properties": { "ID": 2, "ID_1": 18.423019, "Iܳ": 24.688366 }, "geometry": { "type": "MultiPolygon", "coordinates": [ [ [ [ 75.48478767519407, 32.388185313845497 ], [ 75.442120144616979, 32.391936122392281 ], [ 75.356775768007594, 32.410006141188035 ], [ 75.266359464734535, 32.441241209293196 ], [ 75.150801485897091, 32.470119430715158 ], [ 75.047154539877681, 32.470781462965874 ], [ 74.84874123223716, 32.495959800660103 ], [ 74.721568424734812, 32.526506224592083 ], [ 74.663450647068657, 32.556189744183769 ], [ 74.649352300368832, 32.582711323010358 ], [ 74.660389054377845, 32.652298597258834 ], [ 74.668265382978007, 32.695957724478831 ], [ 74.659990863529174, 32.723902142299949 ], [ 74.624957086657162, 32.756015922150937 ], [ 74.539446342358588, 32.780059430610891 ], [ 74.407140606937617, 32.792563919929705 ], [ 74.347833320425025, 32.801672212023107 ], [ 74.347893773406327, 32.802060254634625 ], [ 74.355852758076026, 32.853148308981929 ], [ 74.360011214048882, 32.91390728698741 ], [ 74.340345722420636, 32.980201888207773 ], [ 74.283337731583742, 33.067964163863792 ], [ 74.220934152643167, 33.099758881697994 ], [ 74.142751336060769, 33.128423560569388 ], [ 74.087500037550569, 33.163514778061881 ], [ 74.056561822022445, 33.203825528561822 ], [ 74.060857109981157, 33.238306631053661 ], [ 74.070275562993004, 33.259506306611627 ], [ 74.082485458509154, 33.279427942724965 ], [ 74.110719908033673, 33.308412165643972 ], [ 74.162565914831248, 33.3569567775412 ], [ 74.191628076265658, 33.403796175977163 ], [ 74.216290337945793, 33.479398911320231 ], [ 74.209590594936515, 33.521363549731177 ], [ 74.188706080359225, 33.564954049805237 ], [ 74.156101876275102, 33.601737748346579 ], [ 74.109639407561247, 33.648470978507248 ], [ 74.060534242058168, 33.701226356761254 ], [ 74.025434293666649, 33.748777441814013 ], [ 74.010172502959733, 33.793351258923337 ], [ 74.017231560765367, 33.825343014067414 ], [ 74.11714627800103, 33.889158231642 ], [ 74.186419976333354, 33.90375590244372 ], [ 74.248413861556685, 33.914967202659398 ], [ 74.284923914689273, 33.931718699492478 ], [ 74.302034761537527, 33.96218641367409 ], [ 74.300304910182717, 33.987280558791838 ], [ 74.276753500466953, 34.004708731659377 ], [ 74.249802389576928, 34.010314487976132 ], [ 74.211198776230958, 34.011503410469743 ], [ 74.157724316359065, 34.000017382445208 ], [ 74.070056469325664, 33.991912925010297 ], [ 74.013124167054571, 33.999549504150195 ], [ 73.992277401341426, 34.014463525466965 ], [ 73.966596082124056, 34.050972132974607 ], [ 73.949777758732353, 34.094371501348462 ], [ 73.951161800976877, 34.127708277804459 ], [ 73.966031866020558, 34.174958606784571 ], [ 73.995297227604055, 34.222979498261509 ], [ 73.993481673699876, 34.24806037873924 ], [ 73.979558826148207, 34.292558171359076 ], [ 73.954690151935836, 34.350473327988993 ], [ 73.940536272019017, 34.390199957500727 ], [ 73.946082075239076, 34.488930900440323 ], [ 73.983839362773267, 34.59982575360749 ], [ 74.003751763705509, 34.627838187665532 ], [ 74.069384140153602, 34.646172805998617 ], [ 74.194610118409855, 34.642434535592997 ], [ 74.311216136845871, 34.671013180239868 ], [ 74.34547745314336, 34.694955938907128 ], [ 74.369783352280081, 34.721586371505055 ], [ 74.392385476630523, 34.742310672271742 ], [ 74.421645732514719, 34.750908445586731 ], [ 74.469869220127066, 34.76365395237417 ], [ 74.530448625638087, 34.762878130734862 ], [ 74.637993410936929, 34.74860097962835 ], [ 74.893989347511138, 34.703660037923441 ], [ 75.114670374778314, 34.694096598268857 ], [ 75.250243824751351, 34.676312543688937 ], [ 75.376919020673995, 34.63808396786402 ], [ 75.453915196822663, 34.606468381562877 ], [ 75.58022728805588, 34.564878506211983 ], [ 75.653053224174471, 34.561919362924414 ], [ 75.72223378340999, 34.562251306528935 ], [ 75.787873175724201, 34.567465094067188 ], [ 75.880744151037106, 34.577849807036557 ], [ 75.970402591643676, 34.597848191389289 ], [ 76.08967329150795, 34.629204256278229 ], [ 76.32087440472236, 34.722147909295757 ], [ 76.448529058583404, 34.759175616126868 ], [ 76.542318605452181, 34.778618799434355 ], [ 76.606120821316381, 34.781949053201686 ], [ 76.724251393937493, 34.763549606016113 ], [ 76.800779246621516, 34.729609375987366 ], [ 76.821971965990599, 34.703130407804622 ], [ 76.84002142818548, 34.606842878840894 ], [ 76.851174215893593, 34.601520374353584 ], [ 76.889495777552327, 34.599615783483159 ], [ 76.937788484056284, 34.688694778498473 ], [ 76.9925167987073, 34.823899908751571 ], [ 77.087596246290161, 35.11259091913837 ], [ 77.247011153375752, 35.59662455382329 ], [ 77.305968886031678, 35.587618122830804 ], [ 77.324718158677456, 35.586637802919881 ], [ 77.344842845206415, 35.581388598861622 ], [ 77.364306365824177, 35.567782560240687 ], [ 77.373431355958701, 35.553320485567724 ], [ 77.389257494797789, 35.537105085405244 ], [ 77.422662948636116, 35.526946121193305 ], [ 77.460134306228042, 35.524951512603536 ], [ 77.515643294491156, 35.534563145655852 ], [ 77.553678628255682, 35.539504979188848 ], [ 77.606481816150733, 35.536642156218875 ], [ 77.635209424661582, 35.532279360357393 ], [ 77.666208680334364, 35.534778159572738 ], [ 77.707448714700149, 35.557682545018963 ], [ 77.721537529258171, 35.562498965581256 ], [ 77.733462872972495, 35.561839998397886 ], [ 77.760141709635718, 35.553369789287444 ], [ 77.793047858166176, 35.537554491531409 ], [ 77.841852092995623, 35.527832338096914 ], [ 77.937681005367892, 35.528017746350088 ], [ 77.999183563205918, 35.5468908019472 ], [ 78.070949702127109, 35.545563428161756 ], [ 78.091264420698963, 35.542990322344053 ], [ 78.100636577513853, 35.5326559549639 ], [ 78.09530085232808, 35.510583751644106 ], [ 78.08059872985416, 35.498844940855236 ], [ 78.028604715935273, 35.471067236341241 ], [ 78.008216500879882, 35.452652925748282 ], [ 77.992582396302339, 35.429766434190356 ], [ 77.988740737441617, 35.404804076113237 ], [ 77.993624948649369, 35.32197409460457 ], [ 78.039550853862238, 35.231918305122804 ], [ 78.111685564684194, 35.176641456577727 ], [ 78.137969755378379, 35.142043246588855 ], [ 78.150455372058275, 35.117264562793935 ], [ 78.152540495858489, 35.057018816114009 ], [ 78.206298171116089, 35.002742152896076 ], [ 78.230174034325785, 34.983288055441335 ], [ 78.252727568409853, 34.948872069914842 ], [ 78.284787660710947, 34.856740118568723 ], [ 78.294502691297566, 34.75990732445905 ], [ 78.302681652739011, 34.687217839397874 ], [ 78.336453240293395, 34.615985848118726 ], [ 78.364089092474444, 34.599270916515138 ], [ 78.395599922128497, 34.585323101553627 ], [ 78.460469252044163, 34.578355577379625 ], [ 78.552009290202079, 34.584755295696027 ], [ 78.582943862825232, 34.564779004903073 ], [ 78.631008829854977, 34.523407908417425 ], [ 78.65710046502744, 34.510486242501827 ], [ 78.734264355187292, 34.519168973739284 ], [ 78.750534209798559, 34.518138231096941 ], [ 78.768058187839529, 34.501222126440382 ], [ 78.784533551194158, 34.473080702063442 ], [ 78.823302135016661, 34.450284466965627 ], [ 78.875806538916493, 34.428849657171668 ], [ 78.959084505532985, 34.387328396052339 ], [ 78.993001930346963, 34.371567586157482 ], [ 79.035669821665977, 34.361999264504618 ], [ 79.067289061012559, 34.35088635230511 ], [ 79.090137083267166, 34.333568623788665 ], [ 79.092101895175176, 34.297297381381213 ], [ 79.074584139547596, 34.284900346085124 ], [ 79.060204028006069, 34.276812407584146 ], [ 79.042266054728827, 34.259921204528666 ], [ 79.019496262929067, 34.220754577300966 ], [ 78.999659671663096, 34.183650252867778 ], [ 78.966335426943147, 34.147423140966168 ], [ 78.92455828714526, 34.13658873699876 ], [ 78.863469996764536, 34.122471523421609 ], [ 78.793884533920789, 34.104354380307541 ], [ 78.737409262223025, 34.080851359587143 ], [ 78.711469298113002, 34.064427567562802 ], [ 78.706096392866925, 34.035399971593222 ], [ 78.727285501328709, 34.000164941075582 ], [ 78.780808794597135, 33.96285651921437 ], [ 78.80153887500137, 33.923113816484033 ], [ 78.802561918508218, 33.846215615273763 ], [ 78.802753957297512, 33.760322302872282 ], [ 78.747533258862632, 33.689280132177998 ], [ 78.731626612671676, 33.663174051060366 ], [ 78.728135536834372, 33.624970701089694 ], [ 78.77525644865392, 33.549610426816571 ], [ 78.812100725167568, 33.509931432970234 ], [ 78.862230971633153, 33.482941606450368 ], [ 78.885117770884676, 33.467884976295977 ], [ 78.895618661980564, 33.450241222368902 ], [ 78.905175141785378, 33.422482111817203 ], [ 78.91102034358812, 33.398356009384372 ], [ 78.930927135549837, 33.373306925590896 ], [ 78.976935493679889, 33.346534132218778 ], [ 79.027568980308615, 33.326221603466081 ], [ 79.048066637066654, 33.307896498279547 ], [ 79.063267562281567, 33.276349185106881 ], [ 79.06979587264874, 33.238591359088048 ], [ 79.067978961394374, 33.197995400043908 ], [ 79.068710375251328, 33.184373744039817 ], [ 79.085160667407536, 33.166307779512636 ], [ 79.113790222504804, 33.14911869902852 ], [ 79.128702706303386, 33.136239386667 ], [ 79.130467562417266, 33.112365431366698 ], [ 79.107409264192142, 33.039252822557955 ], [ 79.111658180531833, 33.020300824827132 ], [ 79.129195245548715, 32.971603769511091 ], [ 79.151354571603349, 32.929377185267981 ], [ 79.185486879816381, 32.886331771165487 ], [ 79.207763118974924, 32.845778688437747 ], [ 79.207731599255453, 32.803344919058361 ], [ 79.210018163891391, 32.764146477183772 ], [ 79.22594770077086, 32.720620057071812 ], [ 79.262897002912155, 32.67140412513578 ], [ 79.267097989435399, 32.636735500737814 ], [ 79.265478393392527, 32.588457709478519 ], [ 79.255263708115706, 32.497469277888683 ], [ 79.210738096343164, 32.455947465428324 ], [ 79.159214299534938, 32.435264612191133 ], [ 79.140353545965866, 32.426358174485927 ], [ 79.129731751971804, 32.409249787320505 ], [ 79.12776579678598, 32.37245074587571 ], [ 79.116557023935457, 32.349013068601494 ], [ 79.088535433849472, 32.338173524429408 ], [ 79.027768721725067, 32.34608573608574 ], [ 78.958396690164761, 32.358363315181521 ], [ 78.880754618751382, 32.378789870884589 ], [ 78.808249719611354, 32.423024525886433 ], [ 78.788851009188477, 32.457394579189099 ], [ 78.774375519148407, 32.513082038398863 ], [ 78.765162775410374, 32.610430580839193 ], [ 78.749504754578311, 32.653452960604909 ], [ 78.699797451482993, 32.652846372725776 ], [ 78.673817651906461, 32.631606703532043 ], [ 78.64485862177861, 32.610553216924473 ], [ 78.546955270336014, 32.574786559821405 ], [ 78.511904354050159, 32.56936582962993 ], [ 78.484937669994792, 32.553245693523934 ], [ 78.481772620816685, 32.536724773521769 ], [ 78.468475322749725, 32.532554548602604 ], [ 78.434178623908281, 32.511771429742225 ], [ 78.396703840946714, 32.49576466191138 ], [ 78.365674558565843, 32.491578674745597 ], [ 78.346461853471624, 32.498884845807368 ], [ 78.334070031785132, 32.522582830465353 ], [ 78.33835401370618, 32.551363713748231 ], [ 78.349692940180546, 32.578178780768212 ], [ 78.376989592429879, 32.622346896087834 ], [ 78.383483605266122, 32.655573385928051 ], [ 78.373273816388519, 32.683720984146134 ], [ 78.326316116308874, 32.712098015126458 ], [ 78.269112630620668, 32.71968620170918 ], [ 78.193391092034631, 32.70799585661814 ], [ 78.085180915140086, 32.653382554144855 ], [ 78.020129205069907, 32.653185810571415 ], [ 77.99014284910362, 32.669226416229037 ], [ 77.977432761575017, 32.69035321697362 ], [ 77.958464679022882, 32.75259538579121 ], [ 77.935236960935129, 32.792669635386233 ], [ 77.869007131298758, 32.867837463664046 ], [ 77.779335910055522, 32.983006720291712 ], [ 77.687020149080411, 33.067694737457998 ], [ 77.659096191314404, 33.081491534247618 ], [ 77.625704519499607, 33.087444103544669 ], [ 77.555544694996456, 33.087294695684534 ], [ 77.493439497052293, 33.066303292856162 ], [ 77.379169443246724, 32.995191816055751 ], [ 77.286144388601201, 32.947281896127208 ], [ 77.241630653396157, 32.933378081356011 ], [ 77.183911097424584, 32.936449789281369 ], [ 77.129043155944885, 32.945454860040172 ], [ 77.042412229378328, 32.98255709984096 ], [ 76.962790290552675, 33.017203957096001 ], [ 76.916681383104958, 33.048060682833011 ], [ 76.844086431259711, 33.114838233382443 ], [ 76.760473204002096, 33.198396011782847 ], [ 76.721877220137515, 33.234904049593524 ], [ 76.684677825652216, 33.257085826891284 ], [ 76.64420499033281, 33.267207332710711 ], [ 76.468375779179098, 33.281781847626405 ], [ 76.366957600368323, 33.286563578570735 ], [ 76.28418610224378, 33.280237993990852 ], [ 76.207489713364851, 33.255276568785462 ], [ 76.125574484536855, 33.185751444065545 ], [ 76.034756411173362, 33.049431002324866 ], [ 75.933509812760121, 32.958870694676762 ], [ 75.831526846722227, 32.932373595471518 ], [ 75.747886371990262, 32.921298752180178 ], [ 75.751724094598728, 32.888588139489002 ], [ 75.76575778823775, 32.865207515862664 ], [ 75.820881292560102, 32.787982010295991 ], [ 75.813292050378379, 32.6939010940971 ], [ 75.773397948929926, 32.606079996709411 ], [ 75.707511179999244, 32.499808741025277 ], [ 75.557165243557961, 32.390497725177795 ], [ 75.510852401620866, 32.385887231009292 ], [ 75.48478767519407, 32.388185313845497 ] ] ] ] } }
]
}
