{
"type": "FeatureCollection",
"name": "巴基斯坦",
"crs": { "type": "name", "properties": { "name": "urn:ogc:def:crs:OGC:1.3:CRS84" } },
"features": [
{ "type": "Feature", "properties": { "Id": 0 }, "geometry": { "type": "MultiPolygon", "coordinates": [ [ [ [ 74.992041856373106, 37.049367553918351 ], [ 75.0195070376557, 37.043454157566302 ], [ 75.065002001936449, 37.084537771910064 ], [ 75.127843286808144, 37.089718584304265 ], [ 75.161466275381571, 37.110779590080789 ], [ 75.187220717243036, 37.115414417098876 ], [ 75.208035938940242, 37.114656811082291 ], [ 75.226326686580279, 37.110276472530856 ], [ 75.241243322019301, 37.0874562733933 ], [ 75.260881811264852, 37.066315285510953 ], [ 75.294483942677488, 37.046509077301614 ], [ 75.335865321269097, 37.041254520227895 ], [ 75.40749844315971, 37.038557180195049 ], [ 75.443918741666351, 37.027889080523934 ], [ 75.46140855929562, 37.010510664284546 ], [ 75.472073848763301, 36.99524800575081 ], [ 75.481850049361157, 36.965163160447744 ], [ 75.495015880770239, 36.914516653436998 ], [ 75.497722802948473, 36.843835481566344 ], [ 75.501779539255352, 36.834391382088782 ], [ 75.515167452213589, 36.826442968221428 ], [ 75.571053561729357, 36.833552924168622 ], [ 75.602717226883016, 36.860171984136436 ], [ 75.632660683812546, 36.896137828247973 ], [ 75.670256469233749, 36.905789419019108 ], [ 75.723318146266323, 36.903666466563678 ], [ 75.847835294359214, 36.861455430700481 ], [ 75.921655021808689, 36.82310451925278 ], [ 75.981229293666914, 36.779735204933061 ], [ 75.997241444984837, 36.741896543855212 ], [ 76.025233937014065, 36.710978199947519 ], [ 76.031046680168075, 36.694005193913981 ], [ 76.020629149099008, 36.675861959705813 ], [ 76.017359413544256, 36.661131774682786 ], [ 76.02014362791877, 36.633133245052029 ], [ 76.046757955432682, 36.581811389150609 ], [ 76.071655383594049, 36.539847020539284 ], [ 76.079501628368035, 36.519058974989001 ], [ 76.080577035159394, 36.500419635463651 ], [ 76.073787989307135, 36.467241454355481 ], [ 76.070273431818904, 36.44879700850688 ], [ 76.068689671637586, 36.424690060107523 ], [ 76.086531950959326, 36.381149119908429 ], [ 76.107507124777058, 36.350485831429246 ], [ 76.110989773739703, 36.333595080553415 ], [ 76.095768880141833, 36.311931453250345 ], [ 76.034364876754196, 36.286665751677127 ], [ 76.017481649378411, 36.274364816811755 ], [ 76.004828333206234, 36.22095458519069 ], [ 76.02121514039689, 36.155136805390519 ], [ 76.052399547947886, 36.140776352672972 ], [ 76.20504123863347, 36.12483461773116 ], [ 76.227662889583172, 36.120114760481592 ], [ 76.241673884018127, 36.08971770665309 ], [ 76.243749204738123, 36.052401673985656 ], [ 76.223149565168427, 35.984442493355758 ], [ 76.218630123869019, 35.95113403884006 ], [ 76.266473733966876, 35.913636628868694 ], [ 76.291322643460575, 35.908802754007773 ], [ 76.352800025592188, 35.904175095103341 ], [ 76.426447355500073, 35.910136148519733 ], [ 76.473111520202181, 35.922890379089452 ], [ 76.499898086666491, 35.945859564925982 ], [ 76.524414962928446, 35.968928517210863 ], [ 76.584952504663789, 35.982863745686096 ], [ 76.640675936992267, 35.993277026645309 ], [ 76.718576224711157, 35.993301675044982 ], [ 76.732006944131768, 35.988935615686579 ], [ 76.736434552517736, 35.955207001687583 ], [ 76.671346180399638, 35.909895467470861 ], [ 76.646675849373338, 35.884993385530805 ], [ 76.624298844832182, 35.859978197911254 ], [ 76.620302071109364, 35.835955628128787 ], [ 76.623276273845093, 35.813465608831862 ], [ 76.658146728712353, 35.789464445785867 ], [ 76.726762673730803, 35.758249810345795 ], [ 76.884339094912974, 35.694709507893407 ], [ 76.967665981664396, 35.663572095278447 ], [ 77.026227364012399, 35.645272723020767 ], [ 77.068871648975829, 35.643126413146049 ], [ 77.123772389534423, 35.644537138337469 ], [ 77.164708446061098, 35.642448445458641 ], [ 77.212017935682667, 35.612062863107859 ], [ 77.236621449143371, 35.598211693456705 ], [ 77.24701115337578, 35.596624553823297 ], [ 77.08759624629019, 35.112590919138327 ], [ 76.992516798707328, 34.823899908751528 ], [ 76.937788484056242, 34.688694778498437 ], [ 76.889495777552355, 34.599615783483195 ], [ 76.851174215893565, 34.601520374353541 ], [ 76.840021428185452, 34.606842878840915 ], [ 76.821971965990642, 34.703130407804579 ], [ 76.800779246621545, 34.72960937598738 ], [ 76.724251393937536, 34.763549606016142 ], [ 76.606120821316409, 34.781949053201721 ], [ 76.542318605452166, 34.77861879943439 ], [ 76.448529058583446, 34.759175616126832 ], [ 76.320874404722389, 34.722147909295764 ], [ 76.089673291507978, 34.629204256278186 ], [ 75.970402591643662, 34.597848191389254 ], [ 75.880744151037078, 34.577849807036564 ], [ 75.787873175724158, 34.567465094067195 ], [ 75.722233783410019, 34.562251306528957 ], [ 75.653053224174499, 34.561919362924442 ], [ 75.580227288055852, 34.564878506212004 ], [ 75.453915196822706, 34.606468381562834 ], [ 75.376919020673967, 34.638083967864041 ], [ 75.250243824751394, 34.676312543688958 ], [ 75.114670374778342, 34.694096598268864 ], [ 74.893989347511109, 34.703660037923456 ], [ 74.6379934109369, 34.748600979628385 ], [ 74.530448625638115, 34.762878130734897 ], [ 74.469869220127052, 34.763653952374185 ], [ 74.421645732514762, 34.750908445586688 ], [ 74.39238547663048, 34.742310672271699 ], [ 74.369783352280052, 34.721586371505097 ], [ 74.345477453143374, 34.694955938907157 ], [ 74.311216136845843, 34.671013180239825 ], [ 74.194610118409827, 34.642434535592955 ], [ 74.069384140153574, 34.646172805998631 ], [ 74.003751763705537, 34.62783818766556 ], [ 73.983839362773224, 34.599825753607504 ], [ 73.946082075239104, 34.48893090044028 ], [ 73.940536272018988, 34.390199957500755 ], [ 73.954690151935793, 34.350473327988958 ], [ 73.979558826148249, 34.29255817135904 ], [ 73.993481673699904, 34.248060378739275 ], [ 73.995297227604013, 34.222979498261552 ], [ 73.966031866020586, 34.1749586067846 ], [ 73.951161800976834, 34.12770827780448 ], [ 73.949777758732381, 34.094371501348427 ], [ 73.966596082124028, 34.050972132974621 ], [ 73.992277401341454, 34.014463525466986 ], [ 74.013124167054599, 33.999549504150217 ], [ 74.070056469325635, 33.991912925010325 ], [ 74.157724316359037, 34.000017382445165 ], [ 74.211198776231001, 34.011503410469778 ], [ 74.249802389576956, 34.010314487976167 ], [ 74.276753500466995, 34.004708731659335 ], [ 74.300304910182675, 33.987280558791795 ], [ 74.302034761537541, 33.962186413674111 ], [ 74.284923914689244, 33.931718699492485 ], [ 74.248413861556656, 33.91496720265944 ], [ 74.186419976333383, 33.903755902443685 ], [ 74.117146278001059, 33.889158231642035 ], [ 74.017231560765353, 33.825343014067421 ], [ 74.010172502959762, 33.793351258923295 ], [ 74.025434293666621, 33.748777441813978 ], [ 74.060534242058154, 33.701226356761282 ], [ 74.109639407561218, 33.648470978507213 ], [ 74.156101876275073, 33.601737748346594 ], [ 74.188706080359196, 33.564954049805273 ], [ 74.209590594936557, 33.52136354973122 ], [ 74.216290337945821, 33.479398911320246 ], [ 74.191628076265673, 33.403796175977185 ], [ 74.16256591483122, 33.356956777541235 ], [ 74.110719908033687, 33.308412165644008 ], [ 74.082485458509183, 33.279427942724922 ], [ 74.070275562993018, 33.259506306611641 ], [ 74.060857109981129, 33.238306631053682 ], [ 74.056561822022474, 33.203825528561836 ], [ 74.087500037550612, 33.163514778061838 ], [ 74.142751336060755, 33.128423560569431 ], [ 74.220934152643139, 33.099758881698016 ], [ 74.283337731583757, 33.067964163863827 ], [ 74.340345722420622, 32.980201888207816 ], [ 74.360011214048896, 32.913907286987431 ], [ 74.355852758075997, 32.853148308981972 ], [ 74.347893773406369, 32.802060254634668 ], [ 74.347833320424996, 32.801672212023114 ], [ 74.407140606937659, 32.79256391992967 ], [ 74.539446342358616, 32.780059430610919 ], [ 74.624957086657176, 32.756015922150901 ], [ 74.65999086352916, 32.723902142299906 ], [ 74.668265382977978, 32.695957724478852 ], [ 74.660389054377802, 32.652298597258877 ], [ 74.649352300368875, 32.582711323010393 ], [ 74.663450647068643, 32.556189744183783 ], [ 74.72156842473477, 32.52650622459204 ], [ 74.848741232237202, 32.495959800660145 ], [ 75.047154539877724, 32.470781462965903 ], [ 75.150801485897063, 32.470119430715194 ], [ 75.266359464734506, 32.441241209293203 ], [ 75.35677576800758, 32.410006141188063 ], [ 75.442120144617007, 32.391936122392295 ], [ 75.484787675194056, 32.388185313845518 ], [ 75.423028161242854, 32.325350877951927 ], [ 75.222978204663647, 32.178076957506285 ], [ 75.164839702326205, 32.140530608659567 ], [ 75.084973367875861, 32.133627784986196 ], [ 74.986755576114419, 32.133328606328881 ], [ 74.931403583171488, 32.1061055439528 ], [ 74.907560951445376, 32.071453662895884 ], [ 74.886750303944481, 32.063152234765731 ], [ 74.851378602660503, 32.02748190915009 ], [ 74.818531185726869, 31.985751333939938 ], [ 74.777979574025125, 31.957399878964409 ], [ 74.755298557026464, 31.951053374204903 ], [ 74.708779635988634, 31.943157920171316 ], [ 74.671922934455395, 31.932526268245553 ], [ 74.564976989084229, 31.857534756286753 ], [ 74.505111308863576, 31.8011494868908 ], [ 74.461711487733709, 31.721324817587615 ], [ 74.508427027419913, 31.648866077671222 ], [ 74.525286671684412, 31.560739978835805 ], [ 74.540902122815595, 31.496529207004549 ], [ 74.567991315279457, 31.429930873767475 ], [ 74.538114945974272, 31.320118219648052 ], [ 74.523021556160742, 31.213696058596085 ], [ 74.539042055226133, 31.16096585076501 ], [ 74.566486365246504, 31.147464442670724 ], [ 74.614000804424606, 31.143561474975201 ], [ 74.643821795229684, 31.133817629037452 ], [ 74.656028995295145, 31.121068311644351 ], [ 74.664230346233424, 31.10396346912686 ], [ 74.64193217676204, 31.094578697173077 ], [ 74.577346926863385, 31.072509589456764 ], [ 74.522094700515169, 31.048066794050932 ], [ 74.509515204976509, 31.030262717425401 ], [ 74.501174896851936, 31.002185027253589 ], [ 74.475396833563792, 30.952412003437779 ], [ 74.448576218901536, 30.931030050312735 ], [ 74.419511902588141, 30.911743432220725 ], [ 74.311461326743569, 30.858578135920844 ], [ 74.26316556517574, 30.827727833041962 ], [ 74.2407645579639, 30.798060113038083 ], [ 74.232260199941749, 30.763893882664568 ], [ 74.22141986905298, 30.729801348900942 ], [ 74.199225455544166, 30.704171660801379 ], [ 74.167850390996236, 30.682879424572739 ], [ 74.143933612995141, 30.671475658272314 ], [ 74.025337896975287, 30.636647112916833 ], [ 73.986677639967837, 30.60743183454796 ], [ 73.931678602266018, 30.519945992783015 ], [ 73.886513560385339, 30.442277639962889 ], [ 73.853011741726547, 30.409357725488839 ], [ 73.917022834595187, 30.305523542878376 ], [ 73.924143431231599, 30.18783210416008 ], [ 73.808060595951844, 30.073761774099161 ], [ 73.538041889619734, 29.994474967064477 ], [ 73.402219403910991, 29.883145966125742 ], [ 73.317647307367409, 29.719323452068654 ], [ 73.225294154878583, 29.486696486162341 ], [ 73.136917078186528, 29.27434853182281 ], [ 72.945702420007521, 29.057498424383617 ], [ 72.698250962170292, 28.867854218264906 ], [ 72.647860166910078, 28.840933175311719 ], [ 72.49249031967716, 28.772522178044387 ], [ 72.395822855758254, 28.728389016917529 ], [ 72.363380030977467, 28.70345495678955 ], [ 72.306288198497299, 28.612580839670539 ], [ 72.258859386746664, 28.432174808982687 ], [ 72.228925255227452, 28.384194651277735 ], [ 72.190643945682112, 28.349113049925297 ], [ 72.105514058865452, 28.279058384526497 ], [ 72.035364537458278, 28.231687189143269 ], [ 71.961463098371354, 28.13584451152887 ], [ 71.872194105751973, 27.978940930375725 ], [ 71.831040045393493, 27.928493202497958 ], [ 71.784408567203812, 27.890869373953027 ], [ 71.740900295334185, 27.865946626976619 ], [ 71.651492466555879, 27.841606785872226 ], [ 71.45948601555844, 27.864340279939011 ], [ 71.387964801127197, 27.856079218297143 ], [ 71.266186113125087, 27.831753735412875 ], [ 71.131099512848408, 27.768132349923931 ], [ 71.044373569063993, 27.702528208470952 ], [ 70.852049104767929, 27.670779181328172 ], [ 70.752076842009203, 27.714775534309773 ], [ 70.718485871629994, 27.829782050699865 ], [ 70.630575581919729, 28.001200439872871 ], [ 70.57930906316686, 28.031673757445404 ], [ 70.520884438837442, 28.030412601538142 ], [ 70.426422203064945, 28.003304374451606 ], [ 70.349487188188078, 27.947472740207242 ], [ 70.266975664548539, 27.887876566914567 ], [ 70.21261462632026, 27.835998775232891 ], [ 70.15229051867523, 27.743994137999469 ], [ 70.069562468526783, 27.583146805666388 ], [ 69.988465370540737, 27.49548679235528 ], [ 69.89274855630606, 27.395047182395878 ], [ 69.73626006090268, 27.265335627149508 ], [ 69.647075002133576, 27.184516473769989 ], [ 69.610918437973652, 27.125583021032192 ], [ 69.568356164105552, 27.005478670566426 ], [ 69.544732407995227, 26.843721803361394 ], [ 69.561586874745132, 26.757497041842811 ], [ 69.622329538017738, 26.717281750249196 ], [ 69.752153955754565, 26.65930547214251 ], [ 69.821354441097697, 26.617091672159184 ], [ 69.869323986533814, 26.594127860712298 ], [ 69.950389684196182, 26.586140324824655 ], [ 70.096648570940388, 26.592782561579316 ], [ 70.177439563809273, 26.576958981133465 ], [ 70.214774587831855, 26.546517824079359 ], [ 70.229385509673961, 26.482251980879663 ], [ 70.227207819599826, 26.36453650242699 ], [ 70.218842941651914, 26.292827282486282 ], [ 70.172781805991605, 26.231503035702548 ], [ 70.143480332744303, 26.131974207999161 ], [ 70.135072546320416, 26.068116676284532 ], [ 70.13572461754508, 26.045326026777545 ], [ 70.151243332148852, 25.951196905616232 ], [ 70.197665638145537, 25.872100757062462 ], [ 70.268881298278387, 25.793386083409516 ], [ 70.319552483192311, 25.728311673297284 ], [ 70.363607632141125, 25.701108452760131 ], [ 70.417575576470739, 25.683872413090565 ], [ 70.464673773108572, 25.681327071957234 ], [ 70.566470608532967, 25.690809068525152 ], [ 70.640370081673467, 25.710141625126067 ], [ 70.684015684019769, 25.712258927421601 ], [ 70.70810915068536, 25.697777865168632 ], [ 70.718684213646313, 25.630910926050461 ], [ 70.728858601932956, 25.435134603322858 ], [ 70.75975511068296, 25.320493903191561 ], [ 70.804556339725565, 25.239517552387277 ], [ 70.886492003259903, 25.169535502125669 ], [ 70.905918410714392, 25.032429124151275 ], [ 70.993430573812091, 24.921103124040751 ], [ 71.073901868173053, 24.74786619133172 ], [ 71.083430337573745, 24.676523276356928 ], [ 71.058255496878189, 24.622360266525074 ], [ 71.023131980959178, 24.59640229128733 ], [ 71.01264370115986, 24.572113557031646 ], [ 71.006151233704202, 24.536543948312602 ], [ 71.007623141558909, 24.476541483141919 ], [ 71.058125655003877, 24.406766731230263 ], [ 71.072069506114431, 24.369160334446168 ], [ 71.065683731008747, 24.344849230115713 ], [ 71.040988173969524, 24.330063664219022 ], [ 70.979454735439731, 24.31181967341108 ], [ 70.934232549663477, 24.285928784215834 ], [ 70.907428012282949, 24.259890207062458 ], [ 70.884676224109839, 24.228196701564293 ], [ 70.847609041318307, 24.192851257086996 ], [ 70.794458064187396, 24.187579756875007 ], [ 70.706679294349087, 24.195602880698715 ], [ 70.665920377254594, 24.210817369294009 ], [ 70.649761984347606, 24.240884173816386 ], [ 70.631775855545911, 24.308440294201102 ], [ 70.599571625289428, 24.398561716255614 ], [ 70.581182822121605, 24.404271667194529 ], [ 70.558668258902415, 24.404374343291131 ], [ 70.523807362656783, 24.391404911153376 ], [ 70.472525707087854, 24.365369370274699 ], [ 70.42947463796996, 24.344908425153118 ], [ 70.380304673724879, 24.324452133117099 ], [ 70.269770130512413, 24.289132560963019 ], [ 70.230890638021066, 24.274218592337967 ], [ 70.181773122281157, 24.242443138329158 ], [ 70.130626002437893, 24.197535838746294 ], [ 70.083622842037428, 24.173218089849698 ], [ 70.028475677069878, 24.154506514786441 ], [ 69.981512810225539, 24.14514043022314 ], [ 69.916178212749827, 24.143240055488143 ], [ 69.846729834808244, 24.163783704007631 ], [ 69.74446012805349, 24.231070761008684 ], [ 69.644231122561649, 24.260807509484923 ], [ 69.531803439069265, 24.262310397913385 ], [ 69.43992304697376, 24.24319274719667 ], [ 69.323508848570313, 24.231372738806652 ], [ 69.17386825123927, 24.225787181541321 ], [ 69.133989814897873, 24.229733042536957 ], [ 69.066172222837736, 24.272813521466315 ], [ 69.044721265362639, 24.271245702751195 ], [ 69.026519679505796, 24.250022689838875 ], [ 69.020611522756724, 24.226083919907822 ], [ 68.999291399493089, 24.211860737810127 ], [ 68.980918311257113, 24.210306646484366 ], [ 68.967128480865753, 24.21019325930401 ], [ 68.957781783763252, 24.225575004663298 ], [ 68.94360803646812, 24.263403428187853 ], [ 68.938781661639169, 24.285851038846225 ], [ 68.931043538137288, 24.292812864001696 ], [ 68.920309718177052, 24.292720506300476 ], [ 68.908130299838561, 24.284181182818017 ], [ 68.895997235494406, 24.271424567748586 ], [ 68.885952154596211, 24.206684104983196 ], [ 68.88241806938268, 24.106877814397983 ], [ 68.878755845826703, 24.019730917536293 ], [ 68.871410435169295, 23.991565943793976 ], [ 68.850265558711357, 23.967489701987173 ], [ 68.819881777609496, 23.950347531763246 ], [ 68.760324244913505, 23.945554403992116 ], [ 68.67473902927145, 23.944672893219561 ], [ 68.578419468996216, 23.946420111101759 ], [ 68.493470078720122, 23.952263198456166 ], [ 68.491520123899036, 23.937322168235927 ], [ 68.470164398075042, 23.921631794797722 ], [ 68.441558553520778, 23.910255901233509 ], [ 68.407998378519281, 23.90983120679487 ], [ 68.393716472850784, 23.903035152165593 ], [ 68.362898675368584, 23.880592175528832 ], [ 68.348796535048649, 23.862773263034772 ], [ 68.344247103957329, 23.84728470757312 ], [ 68.325291891409393, 23.833807210959275 ], [ 68.303981952561386, 23.818091094791345 ], [ 68.29697509660825, 23.806976017164601 ], [ 68.295008490967859, 23.780503497194346 ], [ 68.285196739184897, 23.724379588665386 ], [ 68.257821199087971, 23.722632254404903 ], [ 68.261972317250866, 23.657010442375988 ], [ 68.253681465393285, 23.648419886313484 ], [ 68.242197083888755, 23.647551721819234 ], [ 68.224522270588153, 23.650125109170713 ], [ 68.209037951129872, 23.65908339567407 ], [ 68.191093833469495, 23.677185018289844 ], [ 68.179957350797366, 23.744824264421734 ], [ 68.179469192342196, 23.773070251229196 ], [ 68.174485870395998, 23.794894325365419 ], [ 68.160548082615279, 23.801752730915478 ], [ 68.151523849962402, 23.791023284701314 ], [ 68.140386430189295, 23.769666493138171 ], [ 68.116828055756727, 23.756597806713849 ], [ 68.109004091342513, 23.764955100411285 ], [ 68.103366340660841, 23.77970262410863 ], [ 68.085804354266912, 23.816871940880631 ], [ 68.06588736160316, 23.856124109260087 ], [ 68.046322733172218, 23.875599621512762 ], [ 68.033054787672526, 23.886694457581211 ], [ 68.017599211592241, 23.891394731237366 ], [ 67.968328510645946, 23.89625225149415 ], [ 67.93695770907874, 23.889377563641119 ], [ 67.88364356767967, 23.865874268586936 ], [ 67.853664724247707, 23.866773738682941 ], [ 67.833537995621313, 23.8741964317792 ], [ 67.805833166269949, 23.913276722385753 ], [ 67.795416166391689, 23.933583117270725 ], [ 67.774294791825909, 23.950872099529182 ], [ 67.736422745637839, 23.960081912159932 ], [ 67.726552839130989, 23.954249172174176 ], [ 67.710566807020484, 23.911560920149995 ], [ 67.687309689508297, 23.885695126118385 ], [ 67.671963907773716, 23.884702453985003 ], [ 67.653435948461052, 23.888593706502988 ], [ 67.617608337029665, 23.909816355936549 ], [ 67.591658310953775, 23.935460840296415 ], [ 67.567053077628572, 23.968900642577491 ], [ 67.552427968317318, 24.00253426170816 ], [ 67.543177562791115, 24.036274319639801 ], [ 67.529321442524136, 24.069217681598516 ], [ 67.509610269727574, 24.080521883879509 ], [ 67.472047101454564, 24.082204743904086 ], [ 67.441113269042702, 24.08793468081419 ], [ 67.434681115008601, 24.099111459237673 ], [ 67.462270316763224, 24.168241137707732 ], [ 67.476704510357195, 24.208828174652737 ], [ 67.479005356364965, 24.241394664859335 ], [ 67.469331507483005, 24.258873490346041 ], [ 67.42179371262263, 24.279110898342989 ], [ 67.402065812121791, 24.297084826782996 ], [ 67.400120777686055, 24.31330662682641 ], [ 67.399367046578121, 24.405923129584124 ], [ 67.389453371113134, 24.431882135418455 ], [ 67.367374657389718, 24.449806429916705 ], [ 67.348323866256834, 24.469913460345889 ], [ 67.337457200467938, 24.502216531104011 ], [ 67.33671995131057, 24.531199903927632 ], [ 67.338840482311682, 24.569440846041253 ], [ 67.335837388828011, 24.596256782122524 ], [ 67.314898566515893, 24.628349573006865 ], [ 67.293648988239809, 24.642040447933507 ], [ 67.279044112228476, 24.667899427129665 ], [ 67.27349811287236, 24.702445291748194 ], [ 67.281092672557676, 24.737986112596751 ], [ 67.295090170405672, 24.765883347613389 ], [ 67.298542049681515, 24.782231841151077 ], [ 67.28515316816231, 24.790433504586147 ], [ 67.260674908674233, 24.807590841371681 ], [ 67.250874806447172, 24.826481955078624 ], [ 67.225663790500548, 24.841494634311985 ], [ 67.207875812833905, 24.839684510786871 ], [ 67.202604103375336, 24.804893178622674 ], [ 67.198259071542523, 24.793474430834024 ], [ 67.181273489900519, 24.790970795617813 ], [ 67.166420789647887, 24.795589132665626 ], [ 67.153000555056622, 24.804484015062574 ], [ 67.136304248176188, 24.819671533075567 ], [ 67.117317223519748, 24.833389311089345 ], [ 67.082646246510464, 24.853109758685139 ], [ 67.041145405217179, 24.866998917370882 ], [ 66.999203904483224, 24.868833206232839 ], [ 66.89047901687951, 24.846840410270239 ], [ 66.79020002780257, 24.832391475172162 ], [ 66.760601697623329, 24.83317241682564 ], [ 66.748671818806685, 24.842678136539494 ], [ 66.755478251915022, 24.850909877505696 ], [ 66.754739882443587, 24.888696431779518 ], [ 66.7736635086045, 25.012818208062455 ], [ 66.773544471751691, 25.083607111987057 ], [ 66.784034500839368, 25.113138650149931 ], [ 66.794704665352029, 25.137010892070329 ], [ 66.79884201960563, 25.171101054524765 ], [ 66.791634428689704, 25.203015446477124 ], [ 66.771520785640377, 25.282752164381346 ], [ 66.729628789498321, 25.326992955666146 ], [ 66.685714358100455, 25.368337074150212 ], [ 66.652792227399019, 25.390130121824413 ], [ 66.604633317592501, 25.432282312620742 ], [ 66.611383887393075, 25.448518997022436 ], [ 66.636601573462897, 25.440694942017934 ], [ 66.647941481062063, 25.443830332757241 ], [ 66.650268087325173, 25.468447054588335 ], [ 66.633055215928962, 25.485932854035116 ], [ 66.616113342234527, 25.494923828428469 ], [ 66.60326609251446, 25.505912062692023 ], [ 66.602772063864919, 25.521010666831597 ], [ 66.595820375669348, 25.542547068248485 ], [ 66.579626427879404, 25.560055213200091 ], [ 66.555353251558842, 25.569784839278949 ], [ 66.501876361074906, 25.580592770885342 ], [ 66.371777243101377, 25.577862539463421 ], [ 66.270285901453477, 25.561677474710461 ], [ 66.242641941074112, 25.548576703965605 ], [ 66.236948365278124, 25.533293011088627 ], [ 66.240956916149187, 25.508853058244448 ], [ 66.268092943770839, 25.506825549984676 ], [ 66.327193316927364, 25.513284038117508 ], [ 66.36741741300736, 25.523895043594631 ], [ 66.405504216493881, 25.536321351793674 ], [ 66.416782413013678, 25.54136518782127 ], [ 66.467846738993629, 25.539972123123096 ], [ 66.491272466338316, 25.524568838400448 ], [ 66.516422665933149, 25.519599033396652 ], [ 66.538324853156837, 25.518313229168673 ], [ 66.547998223668642, 25.509133357325638 ], [ 66.556310173266411, 25.478192709849797 ], [ 66.53986397609944, 25.440908817766157 ], [ 66.517913347502528, 25.454470710571016 ], [ 66.502246582712161, 25.466629609305354 ], [ 66.472801112414743, 25.475883374153348 ], [ 66.40297892378409, 25.489022133573965 ], [ 66.355894229847962, 25.486410316125692 ], [ 66.151927707938654, 25.448862903548715 ], [ 65.930499260410016, 25.400344484343503 ], [ 65.804475208718685, 25.362205134121403 ], [ 65.656948461585372, 25.343348623911417 ], [ 65.516638129852325, 25.351023940240054 ], [ 65.488522868231087, 25.36009547360268 ], [ 65.47092793271328, 25.382135357111409 ], [ 65.4495572677002, 25.395220143333493 ], [ 65.432943375605063, 25.394618682723198 ], [ 65.405810058184102, 25.381035755378097 ], [ 65.301441403520442, 25.328060405392534 ], [ 65.253764927886181, 25.309897213946105 ], [ 65.211115969726166, 25.303243063854104 ], [ 65.182011710829471, 25.303391508219882 ], [ 65.13324940189905, 25.309072310607402 ], [ 65.085746153634744, 25.317302902495438 ], [ 65.053572151374553, 25.323600128804021 ], [ 65.02151469400988, 25.327374596346182 ], [ 64.984163954876394, 25.325891371652094 ], [ 64.945614384640507, 25.320569772744069 ], [ 64.898831534558298, 25.313643010600114 ], [ 64.859218684183546, 25.301952981282668 ], [ 64.840917997258913, 25.279788895234397 ], [ 64.835253568786158, 25.254363083469674 ], [ 64.843660913234871, 25.224477218963333 ], [ 64.858225732091171, 25.209958794428029 ], [ 64.869589567465297, 25.204125304241749 ], [ 64.866374879088383, 25.185101044920717 ], [ 64.833221524742186, 25.18374252056806 ], [ 64.798562053473262, 25.184832001116682 ], [ 64.776081788616338, 25.191457046967265 ], [ 64.763142803757688, 25.200995317337156 ], [ 64.760748558684284, 25.221049372916767 ], [ 64.763945049403603, 25.240077211391306 ], [ 64.756020686618356, 25.259901853184104 ], [ 64.734094389226755, 25.255206545321059 ], [ 64.682918959251481, 25.226599452579197 ], [ 64.6432341103677, 25.217356680518773 ], [ 64.622313682540991, 25.220242580567394 ], [ 64.590739398725489, 25.241563143100006 ], [ 64.558603727237369, 25.264532373706057 ], [ 64.535342359044662, 25.285360842960632 ], [ 64.507160350203065, 25.294212250562261 ], [ 64.421191420539202, 25.312267647972327 ], [ 64.378241101386664, 25.320435514011493 ], [ 64.342477653840589, 25.332272553142239 ], [ 64.300713680235631, 25.352228856289745 ], [ 64.286881409990869, 25.368403020455339 ], [ 64.269077528109918, 25.389436051433918 ], [ 64.255690183937944, 25.43083248540113 ], [ 64.245346718398039, 25.450524252779967 ], [ 64.23906434104255, 25.463680040745025 ], [ 64.210715319554382, 25.474143168645476 ], [ 64.19419071912327, 25.471702191823827 ], [ 64.187462005572314, 25.459628860361779 ], [ 64.193123387795865, 25.424602042665708 ], [ 64.210037769989754, 25.386734255608985 ], [ 64.209781040500445, 25.358158687112027 ], [ 64.20140069272108, 25.342651195496842 ], [ 64.179740385658619, 25.333250293042305 ], [ 64.150237238694388, 25.331882018116232 ], [ 64.105603771538654, 25.336519702993428 ], [ 64.077371531693245, 25.345275400253271 ], [ 64.043601860271366, 25.353763094509503 ], [ 63.99361525421282, 25.354747677062946 ], [ 63.923538030857003, 25.351383086412323 ], [ 63.859195331758954, 25.344898437522996 ], [ 63.788186972724269, 25.326288405503313 ], [ 63.735534442244941, 25.310233565272274 ], [ 63.708901258751759, 25.29209965454254 ], [ 63.700702474138403, 25.274884961258255 ], [ 63.701717521857169, 25.258131907460786 ], [ 63.717973895733266, 25.233740254816002 ], [ 63.732381256514024, 25.209255447670216 ], [ 63.733592391608461, 25.189153223643419 ], [ 63.728574230471523, 25.180501902876802 ], [ 63.708729913349977, 25.172789032291572 ], [ 63.648294425833491, 25.164707333269838 ], [ 63.576516177826853, 25.16105742883515 ], [ 63.518943627714052, 25.16650166030719 ], [ 63.490289317477654, 25.181823606620675 ], [ 63.446582596484397, 25.201396929916616 ], [ 63.405125649253989, 25.214352385051438 ], [ 63.364620332574738, 25.212220064014897 ], [ 63.34068615432858, 25.210953928805065 ], [ 63.311983482575258, 25.197665443286617 ], [ 63.283612562252706, 25.179346318222347 ], [ 63.25341151980458, 25.160922406701943 ], [ 63.229599478540194, 25.15796052445954 ], [ 63.213039380713482, 25.157066734093998 ], [ 63.199831122941703, 25.16139401045799 ], [ 63.182612291685501, 25.170544201368912 ], [ 63.167120775773476, 25.181466932059411 ], [ 63.117831614829655, 25.20062548905236 ], [ 63.026744646000608, 25.209049251380396 ], [ 62.902852242435465, 25.210516296085935 ], [ 62.810477703325269, 25.210307027431085 ], [ 62.74985866139658, 25.205142180386638 ], [ 62.728008480200998, 25.200517023972331 ], [ 62.707099640293805, 25.182493919290401 ], [ 62.682283261653048, 25.167601827478421 ], [ 62.655279988796174, 25.157620007946598 ], [ 62.639791250732053, 25.141583499012217 ], [ 62.638363849585353, 25.109560533349658 ], [ 62.641205120698757, 25.069384780424027 ], [ 62.631007441021353, 25.057020135764592 ], [ 62.61838136558498, 25.052916168084145 ], [ 62.562538645789651, 25.059703619392256 ], [ 62.545280949457755, 25.068765180389548 ], [ 62.545560331198431, 25.090634787486639 ], [ 62.555032579885449, 25.113050626729201 ], [ 62.549677421959188, 25.136268233176125 ], [ 62.539882430625788, 25.144092265837699 ], [ 62.470021115495939, 25.16514011222722 ], [ 62.402827412582639, 25.174543281403857 ], [ 62.373641687597143, 25.169411416921868 ], [ 62.341396702777125, 25.155679188937626 ], [ 62.33686610063674, 25.141951885506682 ], [ 62.322801757693767, 25.082247463557923 ], [ 62.275642208695487, 25.070946816368885 ], [ 62.233879845270877, 25.061643515037176 ], [ 62.157527175291648, 25.021586293801164 ], [ 62.056043866252374, 24.973166140729049 ], [ 62.021169053821922, 24.970951076557942 ], [ 61.996665363170088, 24.977795408430843 ], [ 61.988293431870055, 24.990711299093611 ], [ 61.987392242636417, 25.002423271936276 ], [ 61.993320975705785, 25.021297387748394 ], [ 62.016720444738233, 25.053055034841972 ], [ 62.045774625124068, 25.083485893231046 ], [ 62.062490229551265, 25.106404207791673 ], [ 62.066727871214709, 25.12348771592255 ], [ 62.065451354996469, 25.140222940043085 ], [ 62.053013788320698, 25.157934177646897 ], [ 62.035439280114645, 25.170273976249831 ], [ 62.024405313975912, 25.169573534978625 ], [ 61.997722608769685, 25.156103569087758 ], [ 61.968633080229672, 25.1515550784097 ], [ 61.957722916724862, 25.165207594098867 ], [ 61.950180385352944, 25.186251322181537 ], [ 61.93716365838074, 25.201562009717112 ], [ 61.919366377690494, 25.20221208931331 ], [ 61.892315568648947, 25.19508639176032 ], [ 61.856395068560964, 25.188437173504681 ], [ 61.8749487931033, 25.262029806756299 ], [ 61.910685025359534, 25.37702050589737 ], [ 61.940658705668234, 25.436216097474691 ], [ 61.941852054585965, 25.473243822464482 ], [ 61.924382577121705, 25.514620620327751 ], [ 61.893286409002741, 25.547730278734278 ], [ 61.870856665654401, 25.574002717396834 ], [ 61.8652145899038, 25.59396583178178 ], [ 61.863770673887714, 25.612352435343418 ], [ 61.86913285801031, 25.621938593718781 ], [ 61.887242120046999, 25.624953706391825 ], [ 61.932436657248886, 25.620463124376165 ], [ 61.953461262265407, 25.638438761746237 ], [ 61.950146416466929, 25.654858914219066 ], [ 61.942199734921594, 25.678375612799538 ], [ 61.940052386958776, 25.705959696554544 ], [ 61.964187738324512, 25.762944464882594 ], [ 62.046448935343555, 25.914170621483919 ], [ 62.064881136664447, 25.958049439013038 ], [ 62.08669759869364, 26.005424848822585 ], [ 62.085302757080669, 26.071066668216154 ], [ 62.083906142561702, 26.136712968730443 ], [ 62.082650569434549, 26.153068571221912 ], [ 62.109144411968607, 26.187591196448164 ], [ 62.160050617952429, 26.236769325348959 ], [ 62.241520629577025, 26.268079113383632 ], [ 62.294733080458037, 26.287759570364074 ], [ 62.332712906221694, 26.316357257467267 ], [ 62.409459712147736, 26.363703470671947 ], [ 62.489908109158094, 26.371369675192831 ], [ 62.501083326639538, 26.398718210130053 ], [ 62.535647550343697, 26.46992934976727 ], [ 62.831771920788825, 26.565077556388157 ], [ 62.971764580895979, 26.604446311383619 ], [ 63.0604916023333, 26.607216276283381 ], [ 63.172677188462984, 26.609082574512318 ], [ 63.235352159251718, 26.616638319132953 ], [ 63.279381037222869, 26.623178855412728 ], [ 63.306135109924476, 26.643517721933481 ], [ 63.315887752594101, 26.673474530989967 ], [ 63.32825226202997, 26.699361597445133 ], [ 63.378512999419044, 26.718811697948926 ], [ 63.432200499682999, 26.721592950483338 ], [ 63.467215647497383, 26.723394628826121 ], [ 63.508042315804431, 26.744410793367386 ], [ 63.51826068182816, 26.768065503017898 ], [ 63.490060321595308, 26.880202598431786 ], [ 63.476903050087891, 26.902667208274352 ], [ 63.466947625714042, 26.948433335883422 ], [ 63.46561037595032, 26.969399872375018 ], [ 63.473367219769315, 26.995039310551324 ], [ 63.48032683534489, 27.033259453983323 ], [ 63.487958784829807, 27.060996085489649 ], [ 63.488166321631688, 27.094665389641477 ], [ 63.475318250341523, 27.148707252718392 ], [ 63.418841688277837, 27.185784857068736 ], [ 63.354577921141903, 27.1971880138783 ], [ 63.246711056586797, 27.191535194947932 ], [ 63.17224050372262, 27.179162438783074 ], [ 63.054818684155421, 27.141271639991434 ], [ 63.017038465222647, 27.143420875831044 ], [ 62.975905170182173, 27.160105149786158 ], [ 62.960254926553759, 27.182392176075794 ], [ 62.957043995175553, 27.194841785439746 ], [ 62.96674689816205, 27.224838195547292 ], [ 63.000824398308659, 27.27721528442509 ], [ 63.01031152856747, 27.345079214087161 ], [ 63.009069258705829, 27.397626934575221 ], [ 63.00860133275593, 27.576507512225231 ], [ 62.994230357293134, 27.716758056952447 ], [ 62.972914935681274, 27.75138067286785 ], [ 62.954815262561091, 27.773546350671559 ], [ 62.929973035129137, 27.858497736149531 ], [ 62.931189977908573, 27.909092689668842 ], [ 62.933894078148739, 27.972402980956897 ], [ 62.937558513692188, 28.124199587311434 ], [ 62.943691827547831, 28.206653603381156 ], [ 62.932902573037836, 28.225013938817963 ], [ 62.918399276892721, 28.228430212334306 ], [ 62.867478621427551, 28.208780031366761 ], [ 62.794824239994746, 28.194214083925313 ], [ 62.753227968833542, 28.210836661500512 ], [ 62.693224802698239, 28.251677110701763 ], [ 62.65006476474818, 28.289240906988685 ], [ 62.558388117309548, 28.338749573721429 ], [ 62.401905613539583, 28.372468714766537 ], [ 62.234949927715043, 28.396247541457694 ], [ 62.156681639882578, 28.422419220097257 ], [ 62.113823726550017, 28.442283893187444 ], [ 62.04976636446829, 28.488925951450035 ], [ 61.960864443176639, 28.607045215405432 ], [ 61.932389799373176, 28.644607700448795 ], [ 61.905241605305804, 28.665390708065093 ], [ 61.853172724855938, 28.678984773721712 ], [ 61.816260192292148, 28.70194648876004 ], [ 61.769646665364448, 28.752382422228802 ], [ 61.71699095780324, 28.823963279885419 ], [ 61.673348285753114, 28.888613295178985 ], [ 61.629028533546069, 28.960703590376998 ], [ 61.608221169590159, 29.05678690151899 ], [ 61.545084073957696, 29.300023842625585 ], [ 61.529490735010071, 29.332738546015776 ], [ 61.500806786692436, 29.368347156224591 ], [ 61.468164176507699, 29.399944382911166 ], [ 61.412294707714416, 29.45249500287251 ], [ 61.329189205966934, 29.521959942319416 ], [ 61.302002616910151, 29.538892435775661 ], [ 61.249578583772497, 29.599110233605337 ], [ 61.187242194594155, 29.673636965176627 ], [ 61.100524854358646, 29.731490356177755 ], [ 61.069570050154041, 29.78935953144904 ], [ 61.072839898003949, 29.800828333064107 ], [ 61.159740398840633, 29.802015234618391 ], [ 61.30189207118638, 29.78625665406512 ], [ 61.471264135137311, 29.71494902130037 ], [ 61.658707960231617, 29.629603242945553 ], [ 61.914044900223729, 29.548228648784754 ], [ 62.127978591562389, 29.497607007533773 ], [ 62.319248742276599, 29.460299965021449 ], [ 62.456969809638203, 29.393420583197479 ], [ 62.492715466557442, 29.37301016949468 ], [ 62.548620352757951, 29.368724581228108 ], [ 62.62525840945171, 29.373078969448148 ], [ 62.859471003932327, 29.386105474794462 ], [ 63.141116293031125, 29.393721968276505 ], [ 63.407317308266926, 29.441128187616091 ], [ 63.559338958525508, 29.47117224377341 ], [ 63.665711439887424, 29.480115688696536 ], [ 63.790554228894464, 29.467394160813061 ], [ 64.031838848193914, 29.43747221845295 ], [ 64.135920621446758, 29.412248910758006 ], [ 64.196033842750865, 29.407450210092819 ], [ 64.259975940315812, 29.410276356667449 ], [ 64.369622861544443, 29.512335383178641 ], [ 64.507793275919965, 29.566852974139575 ], [ 64.660926840736479, 29.584416493009076 ], [ 64.896620508117067, 29.578857550919142 ], [ 65.193164531857605, 29.552681781476949 ], [ 65.36244051805825, 29.592454930679597 ], [ 65.646195517545209, 29.642274381590468 ], [ 66.01884112774087, 29.739412284472795 ], [ 66.295586146581201, 29.814578221472939 ], [ 66.36823492616773, 29.846917151051862 ], [ 66.432668132486342, 29.905117305352135 ], [ 66.443757496734548, 29.957362820945306 ], [ 66.42317298623442, 29.978070525407048 ], [ 66.357507821084766, 30.066575933750713 ], [ 66.35215208115855, 30.136689785663869 ], [ 66.390495445273714, 30.232235067892617 ], [ 66.4311804461516, 30.342364653201599 ], [ 66.404823291265942, 30.453090660301115 ], [ 66.378016403062048, 30.651007869143861 ], [ 66.439807409937615, 30.880384626779566 ], [ 66.492911290979009, 30.966574660724177 ], [ 66.562019531916434, 30.999868774925162 ], [ 66.662824144884723, 31.012127673219069 ], [ 66.725837471856877, 31.062133498272722 ], [ 66.739579654727024, 31.156921368057951 ], [ 66.768067328429069, 31.232688438777785 ], [ 66.88434709611991, 31.298419544057239 ], [ 67.007970725319169, 31.313359781295979 ], [ 67.070121402149439, 31.309897907980051 ], [ 67.158402528140414, 31.28033223175742 ], [ 67.291766104711428, 31.249211765451086 ], [ 67.359369402990879, 31.250569282690776 ], [ 67.418269571537451, 31.261409039948262 ], [ 67.533108686742011, 31.290218183375728 ], [ 67.622234489741501, 31.33541791132216 ], [ 67.647145577666407, 31.355228138746504 ], [ 67.686340747585419, 31.368018945037875 ], [ 67.759506058595008, 31.376531044656282 ], [ 67.843967826911495, 31.385185831622941 ], [ 67.863609243614704, 31.390343629777739 ], [ 67.87181025391223, 31.402579059730861 ], [ 67.871337880216245, 31.424359122341102 ], [ 67.805889300292975, 31.447507435500299 ], [ 67.709805081577585, 31.450735089522929 ], [ 67.672649936284685, 31.469459302773835 ], [ 67.654784386413908, 31.507879899143283 ], [ 67.64797450784549, 31.556175481767752 ], [ 67.653220398860043, 31.573212720562005 ], [ 67.695330234816211, 31.586048841808186 ], [ 67.762397193452387, 31.621076838829786 ], [ 67.81825106292996, 31.653466707970075 ], [ 67.905526998189487, 31.674225292805865 ], [ 67.97318068808525, 31.687369203977063 ], [ 68.046126212901584, 31.719918543233845 ], [ 68.132724159648674, 31.781660280001233 ], [ 68.193877777007145, 31.845421557780902 ], [ 68.219166860237593, 31.857860064802345 ], [ 68.236131790259009, 31.860504339611062 ], [ 68.261688568417199, 31.858418097897456 ], [ 68.296001766752951, 31.841918470228514 ], [ 68.34463669470783, 31.815907461674541 ], [ 68.458478264714927, 31.785804614437303 ], [ 68.540737473714699, 31.779465664018332 ], [ 68.580569772634561, 31.767793316419734 ], [ 68.617492181404614, 31.760919281660989 ], [ 68.651477382021866, 31.761265759602352 ], [ 68.673904586036841, 31.778429991405773 ], [ 68.673740445215373, 31.790528468252262 ], [ 68.622440436545531, 31.811790893525334 ], [ 68.576856937970049, 31.828254475732109 ], [ 68.551135459283628, 31.842498706461349 ], [ 68.545322472726895, 31.852115543366295 ], [ 68.604748122146503, 31.860006880883425 ], [ 68.650141125502216, 31.858051644096641 ], [ 68.727378029078992, 31.805568576241157 ], [ 68.844636376951158, 31.714670059395644 ], [ 68.936474216195023, 31.625978001223672 ], [ 68.943495142191523, 31.634554906270303 ], [ 68.971639346908049, 31.651631720128222 ], [ 68.997416121030966, 31.660256027016594 ], [ 69.071227617894976, 31.670270883380354 ], [ 69.110511829061522, 31.685287592087093 ], [ 69.141173440952684, 31.701291035298247 ], [ 69.164360591798186, 31.727776003642745 ], [ 69.217826324595976, 31.823965764308333 ], [ 69.261541439958066, 31.916913663451226 ], [ 69.295861596348232, 31.952912303097591 ], [ 69.33019141809703, 31.96815110264027 ], [ 69.340671004934975, 32.014227452623444 ], [ 69.316888302180615, 32.115959384285652 ], [ 69.30369163708481, 32.199867804507775 ], [ 69.305206023262699, 32.282059409604543 ], [ 69.296496806689348, 32.323103990124046 ], [ 69.298303970876006, 32.364201736894323 ], [ 69.310691604477739, 32.398207029698163 ], [ 69.316781813575048, 32.43039207382995 ], [ 69.305957102356643, 32.471421257615781 ], [ 69.301460000102935, 32.510694790060334 ], [ 69.309548344368494, 32.558962221899989 ], [ 69.326283626424996, 32.578693618796272 ], [ 69.422827620791708, 32.66129586119969 ], [ 69.443837245844207, 32.679242879924082 ], [ 69.462712909223555, 32.702535385558839 ], [ 69.458278705598289, 32.74001976502668 ], [ 69.451717176094377, 32.779279740947153 ], [ 69.459992841953195, 32.811455225877417 ], [ 69.478859701740291, 32.841884669551924 ], [ 69.499845042589513, 32.874103861448766 ], [ 69.537529048350365, 32.958153916612972 ], [ 69.547749451746412, 33.036741523054147 ], [ 69.560229982123218, 33.088552504588719 ], [ 69.57066588662876, 33.126072640275616 ], [ 69.583301720544128, 33.147532246609678 ], [ 69.60872093868889, 33.15831768219627 ], [ 69.685065340905822, 33.174580462352672 ], [ 69.899430855937652, 33.182047440920222 ], [ 70.089633025597678, 33.229342524175742 ], [ 70.213345147854369, 33.24652791930226 ], [ 70.320165790659615, 33.309889330416198 ], [ 70.351327322444703, 33.361821435390667 ], [ 70.330867654078801, 33.419656435959062 ], [ 70.289638548640838, 33.457307460679353 ], [ 70.203825873154045, 33.511670978489782 ], [ 70.166696037419953, 33.554893465397228 ], [ 70.158705681495832, 33.587152978246159 ], [ 70.163149014849083, 33.637089292466904 ], [ 70.156245841645529, 33.669608669913849 ], [ 70.132090511218195, 33.702695426228068 ], [ 70.098313484482702, 33.740321750706947 ], [ 70.023436088038366, 33.764163378935407 ], [ 69.978325527974704, 33.779535822357516 ], [ 69.93921860317063, 33.822568786187112 ], [ 69.865874518375762, 33.943899659510819 ], [ 69.851261334907946, 33.98896826510925 ], [ 69.867528156946648, 34.016230015432669 ], [ 69.880847713499719, 34.052717566443491 ], [ 69.8969098890623, 34.067373712240034 ], [ 69.920084630859535, 34.071655216383789 ], [ 69.996769260616389, 34.069689986867068 ], [ 70.121379431424671, 34.040777902696739 ], [ 70.210890966989695, 34.015449164679723 ], [ 70.2846540224526, 34.005513071663451 ], [ 70.404291748109429, 33.989044169018811 ], [ 70.694065852838364, 33.963021404952009 ], [ 70.922997174932547, 33.98409537334387 ], [ 70.988444614036652, 34.022876530728496 ], [ 71.027534131644501, 34.110397281899473 ], [ 71.050981548897269, 34.199884695557799 ], [ 71.107885837537964, 34.281246794803366 ], [ 71.138641707579296, 34.298272945546692 ], [ 71.166273967248131, 34.338856163330355 ], [ 71.202076842427545, 34.352622171282306 ], [ 71.219142774224267, 34.352472440354475 ], [ 71.210898266380724, 34.400276856063627 ], [ 71.188653234335533, 34.422878051522517 ], [ 71.168536194969548, 34.436120622648232 ], [ 71.090030307844501, 34.468504724927314 ], [ 71.060955256758206, 34.489269244566422 ], [ 71.047695269289903, 34.513641961177754 ], [ 71.039145684936969, 34.563827190477269 ], [ 71.091729188169353, 34.615978877545317 ], [ 71.223038164934877, 34.642881440694417 ], [ 71.234817260894303, 34.68010896213692 ], [ 71.233410271286544, 34.74544719413305 ], [ 71.35990192635505, 34.893555942739873 ], [ 71.456261107790311, 34.997712594554471 ], [ 71.508971668952739, 35.04256874716863 ], [ 71.520879921916986, 35.073349249935603 ], [ 71.517929651861181, 35.103854068999951 ], [ 71.523080506378136, 35.124718589374837 ], [ 71.546191486276754, 35.146987779320867 ], [ 71.598398965586469, 35.186665353845299 ], [ 71.628387176968673, 35.228312712180376 ], [ 71.565974413579028, 35.301752862172819 ], [ 71.51642570311563, 35.332133002614981 ], [ 71.505979408364368, 35.390042965204501 ], [ 71.536548926979407, 35.449365329031856 ], [ 71.542209391425828, 35.516407199977451 ], [ 71.5430699694829, 35.568584012341475 ], [ 71.505619660445092, 35.650987762380304 ], [ 71.495148529782995, 35.682584573396092 ], [ 71.512934713097323, 35.732514901305834 ], [ 71.505168444853538, 35.764647664990534 ], [ 71.478954378886186, 35.841302859942125 ], [ 71.409738130897026, 35.953762913234321 ], [ 71.321640698644401, 36.040273739614214 ], [ 71.260684300755386, 36.109718127326495 ], [ 71.258869794394315, 36.145104310706088 ], [ 71.312755946007869, 36.206659031320243 ], [ 71.383042572450194, 36.256193742611941 ], [ 71.454347689840986, 36.314101868578874 ], [ 71.525698385715799, 36.364635427279623 ], [ 71.609621398758378, 36.434644931417736 ], [ 71.647813515095862, 36.466631642205904 ], [ 71.711125472115924, 36.498305088187621 ], [ 71.766369112691592, 36.499653821636365 ], [ 71.803336929221146, 36.46473740818471 ], [ 71.865024105797232, 36.41327044270578 ], [ 71.88302665166664, 36.435326968605708 ], [ 71.891544121528142, 36.483853007999485 ], [ 71.882499148288417, 36.532607725310051 ], [ 71.88081409753633, 36.573154634394911 ], [ 71.921332116486028, 36.588820606474222 ], [ 71.991834415753019, 36.595952823990984 ], [ 72.069792863383981, 36.598889380153665 ], [ 72.176152277910901, 36.633766966905242 ], [ 72.301958157255029, 36.739148276013019 ], [ 72.393888935075822, 36.790291316118761 ], [ 72.457542183814141, 36.821029981737937 ], [ 72.530698120302731, 36.851267501944484 ], [ 72.635540826064684, 36.873364284554285 ], [ 72.834471710867135, 36.88270457610124 ], [ 72.946592444231342, 36.897141504022287 ], [ 73.01390782401954, 36.906087193238434 ], [ 73.23102471773349, 36.939264486047215 ], [ 73.505549045891911, 36.968002702698676 ], [ 73.665184778260098, 36.991084756308645 ], [ 73.732846090755487, 36.988323055150929 ], [ 73.847277123916157, 36.983578919473558 ], [ 73.965008849980521, 36.972224187530422 ], [ 74.061516240537216, 36.939696349353845 ], [ 74.152999800946731, 36.931715599384248 ], [ 74.214415634891068, 36.942490058463939 ], [ 74.270085967692026, 36.959459187238075 ], [ 74.382070691057521, 37.010976231508337 ], [ 74.464763621296484, 37.024903957467721 ], [ 74.518566768937632, 37.016592597665998 ], [ 74.546357026018157, 37.031055355325392 ], [ 74.55620660554419, 37.057546783078898 ], [ 74.566283233122675, 37.064551244082018 ], [ 74.674396276719378, 37.117036098888178 ], [ 74.752017672704639, 37.150925405648671 ], [ 74.785056140542082, 37.165328691955246 ], [ 74.806787064082087, 37.167073461120211 ], [ 74.843164601138781, 37.153474899150936 ], [ 74.887863289294756, 37.122261725602456 ], [ 74.931043459859865, 37.120777482922406 ], [ 74.961885579465317, 37.119709318879146 ], [ 74.976769551387548, 37.109293524216646 ], [ 74.981728243655283, 37.086849384313687 ], [ 74.992041856373106, 37.049367553918351 ] ] ] ] } }
]
}
